CCSDS_OMM_VERS = 2.0
CREATION_DATE  = 
ORIGINATOR     = 

OBJECT_NAME    = TWILIGHT F
OBJECT_ID      = 2026-004F
CENTER_NAME    = EARTH
REF_FRAME      = TEME
TIME_SYSTEM    = UTC
MEAN_ELEMENT_THEORY = SGP/SGP4

EPOCH          = 2026-01-23T12:33:06.590016
MEAN_MOTION    = 14.87195494
ECCENTRICITY   = .00067512
INCLINATION    = 97.8019
RA_OF_ASC_NODE = 24.4805
ARG_OF_PERICENTER = 243.9035
MEAN_ANOMALY   = 116.1487

EPHEMERIS_TYPE = 0
CLASSIFICATION_TYPE = U
NORAD_CAT_ID   = 67368
ELEMENT_SET_NO = 999
REV_AT_EPOCH   = 178
BSTAR          = .83753776E-3
MEAN_MOTION_DOT = .749E-4
MEAN_MOTION_DDOT = 0

CCSDS_OMM_VERS = 2.0
CREATION_DATE  = 
ORIGINATOR     = 

OBJECT_NAME    = TWILIGHT G
OBJECT_ID      = 2026-004G
CENTER_NAME    = EARTH
REF_FRAME      = TEME
TIME_SYSTEM    = UTC
MEAN_ELEMENT_THEORY = SGP/SGP4

EPOCH          = 2026-01-23T10:55:19.394112
MEAN_MOTION    = 14.87227884
ECCENTRICITY   = .00058519
INCLINATION    = 97.7949
RA_OF_ASC_NODE = 24.4147
ARG_OF_PERICENTER = 259.7296
MEAN_ANOMALY   = 100.3260

EPHEMERIS_TYPE = 0
CLASSIFICATION_TYPE = U
NORAD_CAT_ID   = 67369
ELEMENT_SET_NO = 999
REV_AT_EPOCH   = 177
BSTAR          = .49905135E-3
MEAN_MOTION_DOT = .4442E-4
MEAN_MOTION_DDOT = 0

CCSDS_OMM_VERS = 2.0
CREATION_DATE  = 
ORIGINATOR     = 

OBJECT_NAME    = TWILIGHT H
OBJECT_ID      = 2026-004H
CENTER_NAME    = EARTH
REF_FRAME      = TEME
TIME_SYSTEM    = UTC
MEAN_ELEMENT_THEORY = SGP/SGP4

EPOCH          = 2026-01-23T12:31:41.899872
MEAN_MOTION    = 14.87279205
ECCENTRICITY   = .00055483
INCLINATION    = 97.7948
RA_OF_ASC_NODE = 24.4806
ARG_OF_PERICENTER = 260.5750
MEAN_ANOMALY   = 99.4839

EPHEMERIS_TYPE = 0
CLASSIFICATION_TYPE = U
NORAD_CAT_ID   = 67370
ELEMENT_SET_NO = 999
REV_AT_EPOCH   = 178
BSTAR          = .5396635E-3
MEAN_MOTION_DOT = .4815E-4
MEAN_MOTION_DDOT = 0

CCSDS_OMM_VERS = 2.0
CREATION_DATE  = 
ORIGINATOR     = 

OBJECT_NAME    = TWILIGHT J
OBJECT_ID      = 2026-004J
CENTER_NAME    = EARTH
REF_FRAME      = TEME
TIME_SYSTEM    = UTC
MEAN_ELEMENT_THEORY = SGP/SGP4

EPOCH          = 2026-01-23T15:41:44.134656
MEAN_MOTION    = 14.87638143
ECCENTRICITY   = .00045915
INCLINATION    = 97.7990
RA_OF_ASC_NODE = 24.6167
ARG_OF_PERICENTER = 242.9234
MEAN_ANOMALY   = 117.1514

EPHEMERIS_TYPE = 0
CLASSIFICATION_TYPE = U
NORAD_CAT_ID   = 67371
ELEMENT_SET_NO = 999
REV_AT_EPOCH   = 180
BSTAR          = .99305571E-3
MEAN_MOTION_DOT = .8989E-4
MEAN_MOTION_DDOT = 0

CCSDS_OMM_VERS = 2.0
CREATION_DATE  = 
ORIGINATOR     = 

OBJECT_NAME    = TWILIGHT K
OBJECT_ID      = 2026-004K
CENTER_NAME    = EARTH
REF_FRAME      = TEME
TIME_SYSTEM    = UTC
MEAN_ELEMENT_THEORY = SGP/SGP4

EPOCH          = 2026-01-23T10:47:18.847680
MEAN_MOTION    = 14.87928987
ECCENTRICITY   = .00029195
INCLINATION    = 97.7967
RA_OF_ASC_NODE = 24.4207
ARG_OF_PERICENTER = 237.2709
MEAN_ANOMALY   = 122.8226

EPHEMERIS_TYPE = 0
CLASSIFICATION_TYPE = U
NORAD_CAT_ID   = 67372
ELEMENT_SET_NO = 999
REV_AT_EPOCH   = 177
BSTAR          = .44966763E-3
MEAN_MOTION_DOT = .4067E-4
MEAN_MOTION_DDOT = 0

CCSDS_OMM_VERS = 2.0
CREATION_DATE  = 
ORIGINATOR     = 

OBJECT_NAME    = TWILIGHT L
OBJECT_ID      = 2026-004L
CENTER_NAME    = EARTH
REF_FRAME      = TEME
TIME_SYSTEM    = UTC
MEAN_ELEMENT_THEORY = SGP/SGP4

EPOCH          = 2026-01-23T15:42:23.624640
MEAN_MOTION    = 14.87535082
ECCENTRICITY   = .00045739
INCLINATION    = 97.7982
RA_OF_ASC_NODE = 24.6159
ARG_OF_PERICENTER = 247.7176
MEAN_ANOMALY   = 112.3556

EPHEMERIS_TYPE = 0
CLASSIFICATION_TYPE = U
NORAD_CAT_ID   = 67373
ELEMENT_SET_NO = 999
REV_AT_EPOCH   = 180
BSTAR          = .48378788E-3
MEAN_MOTION_DOT = .4337E-4
MEAN_MOTION_DDOT = 0

CCSDS_OMM_VERS = 2.0
CREATION_DATE  = 
ORIGINATOR     = 

OBJECT_NAME    = TWILIGHT M
OBJECT_ID      = 2026-004M
CENTER_NAME    = EARTH
REF_FRAME      = TEME
TIME_SYSTEM    = UTC
MEAN_ELEMENT_THEORY = SGP/SGP4

EPOCH          = 2026-01-23T10:48:12.382848
MEAN_MOTION    = 14.87874619
ECCENTRICITY   = .00031827
INCLINATION    = 97.7966
RA_OF_ASC_NODE = 24.4187
ARG_OF_PERICENTER = 238.2999
MEAN_ANOMALY   = 121.7907

EPHEMERIS_TYPE = 0
CLASSIFICATION_TYPE = U
NORAD_CAT_ID   = 67374
ELEMENT_SET_NO = 999
REV_AT_EPOCH   = 177
BSTAR          = .51282295E-3
MEAN_MOTION_DOT = .4639E-4
MEAN_MOTION_DDOT = 0

CCSDS_OMM_VERS = 2.0
CREATION_DATE  = 
ORIGINATOR     = 

OBJECT_NAME    = TWILIGHT N
OBJECT_ID      = 2026-004N
CENTER_NAME    = EARTH
REF_FRAME      = TEME
TIME_SYSTEM    = UTC
MEAN_ELEMENT_THEORY = SGP/SGP4

EPOCH          = 2026-01-23T10:47:53.749824
MEAN_MOTION    = 14.87900676
ECCENTRICITY   = .00037146
INCLINATION    = 97.8003
RA_OF_ASC_NODE = 24.4227
ARG_OF_PERICENTER = 231.2425
MEAN_ANOMALY   = 128.8460

EPHEMERIS_TYPE = 0
CLASSIFICATION_TYPE = U
NORAD_CAT_ID   = 67375
ELEMENT_SET_NO = 999
REV_AT_EPOCH   = 177
BSTAR          = .59038508E-3
MEAN_MOTION_DOT = .5353E-4
MEAN_MOTION_DDOT = 0

CCSDS_OMM_VERS = 2.0
CREATION_DATE  = 
ORIGINATOR     = 

OBJECT_NAME    = TWILIGHT P
OBJECT_ID      = 2026-004P
CENTER_NAME    = EARTH
REF_FRAME      = TEME
TIME_SYSTEM    = UTC
MEAN_ELEMENT_THEORY = SGP/SGP4

EPOCH          = 2026-01-23T15:40:05.901312
MEAN_MOTION    = 14.87754099
ECCENTRICITY   = .00041199
INCLINATION    = 97.8000
RA_OF_ASC_NODE = 24.6189
ARG_OF_PERICENTER = 237.0069
MEAN_ANOMALY   = 123.0752

EPHEMERIS_TYPE = 0
CLASSIFICATION_TYPE = U
NORAD_CAT_ID   = 67376
ELEMENT_SET_NO = 999
REV_AT_EPOCH   = 180
BSTAR          = .56028247E-3
MEAN_MOTION_DOT = .5059E-4
MEAN_MOTION_DDOT = 0

CCSDS_OMM_VERS = 2.0
CREATION_DATE  = 
ORIGINATOR     = 

OBJECT_NAME    = TWILIGHT Q
OBJECT_ID      = 2026-004Q
CENTER_NAME    = EARTH
REF_FRAME      = TEME
TIME_SYSTEM    = UTC
MEAN_ELEMENT_THEORY = SGP/SGP4

EPOCH          = 2026-01-23T10:47:42.952416
MEAN_MOTION    = 14.87946141
ECCENTRICITY   = .00029715
INCLINATION    = 97.8002
RA_OF_ASC_NODE = 24.4228
ARG_OF_PERICENTER = 230.8679
MEAN_ANOMALY   = 129.2274

EPHEMERIS_TYPE = 0
CLASSIFICATION_TYPE = U
NORAD_CAT_ID   = 67377
ELEMENT_SET_NO = 999
REV_AT_EPOCH   = 176
BSTAR          = .20661089E-2
MEAN_MOTION_DOT = .18928E-3
MEAN_MOTION_DDOT = 0

CCSDS_OMM_VERS = 2.0
CREATION_DATE  = 
ORIGINATOR     = 

OBJECT_NAME    = TWILIGHT R
OBJECT_ID      = 2026-004R
CENTER_NAME    = EARTH
REF_FRAME      = TEME
TIME_SYSTEM    = UTC
MEAN_ELEMENT_THEORY = SGP/SGP4

EPOCH          = 2026-01-23T15:40:57.756000
MEAN_MOTION    = 14.87675044
ECCENTRICITY   = .00035987
INCLINATION    = 97.7974
RA_OF_ASC_NODE = 24.6157
ARG_OF_PERICENTER = 248.9182
MEAN_ANOMALY   = 111.1650

EPHEMERIS_TYPE = 0
CLASSIFICATION_TYPE = U
NORAD_CAT_ID   = 67378
ELEMENT_SET_NO = 999
REV_AT_EPOCH   = 179
BSTAR          = .56882765E-3
MEAN_MOTION_DOT = .5127E-4
MEAN_MOTION_DDOT = 0

CCSDS_OMM_VERS = 2.0
CREATION_DATE  = 
ORIGINATOR     = 

OBJECT_NAME    = TWILIGHT S
OBJECT_ID      = 2026-004S
CENTER_NAME    = EARTH
REF_FRAME      = TEME
TIME_SYSTEM    = UTC
MEAN_ELEMENT_THEORY = SGP/SGP4

EPOCH          = 2026-01-23T15:40:49.041696
MEAN_MOTION    = 14.87687178
ECCENTRICITY   = .00040874
INCLINATION    = 97.7978
RA_OF_ASC_NODE = 24.6172
ARG_OF_PERICENTER = 243.7757
MEAN_ANOMALY   = 116.3039

EPHEMERIS_TYPE = 0
CLASSIFICATION_TYPE = U
NORAD_CAT_ID   = 67379
ELEMENT_SET_NO = 999
REV_AT_EPOCH   = 179
BSTAR          = .60259028E-3
MEAN_MOTION_DOT = .5437E-4
MEAN_MOTION_DDOT = 0

