TWILIGHT F              
1 67368U 26004F   26023.52299294  .00007490  00000+0  83754-3 0  9996
2 67368  97.8019  24.4805 0006751 243.9035 116.1487 14.87195494  1780
TWILIGHT G              
1 67369U 26004G   26023.45508558  .00004442  00000+0  49905-3 0  9999
2 67369  97.7949  24.4147 0005851 259.7296 100.3260 14.87227884  1777
TWILIGHT H              
1 67370U 26004H   26023.52201273  .00004815  00000+0  53966-3 0  9999
2 67370  97.7948  24.4806 0005548 260.5750  99.4839 14.87279205  1783
TWILIGHT J              
1 67371U 26004J   26023.65398304  .00008989  00000+0  99306-3 0  9990
2 67371  97.7990  24.6167 0004591 242.9234 117.1514 14.87638143  1802
TWILIGHT K              
1 67372U 26004K   26023.44952370  .00004067  00000+0  44967-3 0  9993
2 67372  97.7967  24.4207 0002919 237.2709 122.8226 14.87928987  1773
TWILIGHT L              
1 67373U 26004L   26023.65444010  .00004337  00000+0  48379-3 0  9995
2 67373  97.7982  24.6159 0004573 247.7176 112.3556 14.87535082  1805
TWILIGHT M              
1 67374U 26004M   26023.45014332  .00004639  00000+0  51282-3 0  9996
2 67374  97.7966  24.4187 0003182 238.2999 121.7907 14.87874619  1772
TWILIGHT N              
1 67375U 26004N   26023.44992766  .00005353  00000+0  59039-3 0  9994
2 67375  97.8003  24.4227 0003714 231.2425 128.8460 14.87900676  1774
TWILIGHT P              
1 67376U 26004P   26023.65284608  .00005059  00000+0  56028-3 0  9995
2 67376  97.8000  24.6189 0004119 237.0069 123.0752 14.87754099  1800
TWILIGHT Q              
1 67377U 26004Q   26023.44980269  .00018928  00000+0  20661-2 0  9991
2 67377  97.8002  24.4228 0002971 230.8679 129.2274 14.87946141  1760
TWILIGHT R              
1 67378U 26004R   26023.65344625  .00005127  00000+0  56883-3 0  9998
2 67378  97.7974  24.6157 0003598 248.9182 111.1650 14.87675044  1798
TWILIGHT S              
1 67379U 26004S   26023.65334539  .00005437  00000+0  60259-3 0  9998
2 67379  97.7978  24.6172 0004087 243.7757 116.3039 14.87687178  1794
